BEIDOU-2 IGSO-1 (C06)   
1 36828U 10036A   23354.32975463 -.00000046  00000+0  00000+0 0  9992
2 36828  54.2413 171.1962 0038465 190.8924 313.7882  1.00278899 49104
BEIDOU-2 G4 (C04)       
1 37210U 10057A   23353.81938503 -.00000104  00000+0  00000+0 0  9993
2 37210   1.4191  65.1134 0008020 185.2470 292.7244  1.00272646 48154
BEIDOU-2 IGSO-2 (C07)   
1 37256U 10068A   23354.18470037 -.00000213  00000+0  00000+0 0  9990
2 37256  49.2135 283.0143 0029147 213.2032 123.6091  1.00248895 47668
BEIDOU-2 IGSO-3 (C08)   
1 37384U 11013A   23353.60096250 -.00000192  00000+0  00000+0 0  9996
2 37384  61.0878  48.8620 0026988 184.0318 176.3130  1.00254418 46548
BEIDOU-2 IGSO-4 (C09)   
1 37763U 11038A   23351.34725858  .00000079  00000+0  00000+0 0  9999
2 37763  54.5130 173.7836 0113064 226.8937 261.8262  1.00253217 45493
BEIDOU-2 IGSO-5 (C10)   
1 37948U 11073A   23353.78502799 -.00000163  00000+0  00000+0 0  9995
2 37948  49.3420 282.6932 0095082 221.3935 319.5959  1.00291406 44277
BEIDOU-2 G5 (C05)       
1 38091U 12008A   23354.45994868  .00000066  00000+0  00000+0 0  9992
2 38091   1.9678  70.0126 0008766 206.8987  36.1343  1.00272709 43350
BEIDOU-2 M3 (C11)       
1 38250U 12018A   23352.44169727 -.00000064  00000+0  00000+0 0  9994
2 38250  56.4537 335.3844 0025241 263.8348  95.8819  1.86231066 79300
BEIDOU-2 M4 (C12)       
1 38251U 12018B   23353.44659739 -.00000070  00000+0  00000+0 0  9990
2 38251  56.3626 334.6362 0016188 267.6492  92.1691  1.86231816 79332
BEIDOU-2 M6 (C14)       
1 38775U 12050B   23353.15625796 -.00000010  00000+0  00000+0 0  9995
2 38775  55.7720  93.2220 0011248 331.0145  28.9234  1.86230905 76341
BEIDOU-2 G6 (C02)       
1 38953U 12059A   23354.07688247 -.00000167  00000+0  00000+0 0  9997
2 38953   2.1007  81.5882 0008338 288.0944 190.4012  1.00272218 40924
BEIDOU-3S IGSO-1S (C31) 
1 40549U 15019A   23354.24184500 -.00000190  00000+0  00000+0 0  9998
2 40549  50.9080 306.3139 0036091 195.9449 127.7148  1.00288419 31941
BEIDOU-3S M2S (C57)     
1 40748U 15037A   23353.11142170 -.00000069  00000+0  00000+0 0  9996
2 40748  55.6002 333.1813 0012544 259.2349 100.6267  1.86232985 57159
BEIDOU-3S M1S (C58)     
1 40749U 15037B   23353.38165071 -.00000071  00000+0  00000+0 0  9994
2 40749  55.6031 333.1587 0006734 312.9586  46.9877  1.86232784 57150
BEIDOU-3S IGSO-2S (C56) 
1 40938U 15053A   23353.75061875 -.00000145  00000+0  00000+0 0  9992
2 40938  50.6416 269.5119 0046203 193.1083 350.3340  1.00258341 30219
BEIDOU-2 IGSO-6 (C13)   
1 41434U 16021A   23353.63104869 -.00000169  00000+0  00000+0 0  9994
2 41434  58.9052  47.1815 0049835 223.3496 139.5663  1.00261651 28343
BEIDOU-2 G7 (C03)       
1 41586U 16037A   23354.06021767 -.00000345  00000+0  00000+0 0  9998
2 41586   1.4784  66.4759 0008992 316.0965 198.0425  1.00274083 27659
BEIDOU-3 M1 (C19)       
1 43001U 17069A   23352.38553026 -.00000002  00000+0  00000+0 0  9999
2 43001  55.9224  93.3206 0008998 289.4518  70.4525  1.86231035 41626
BEIDOU-3 M2 (C20)       
1 43002U 17069B   23353.39635443 -.00000013  00000+0  00000+0 0  9998
2 43002  55.9226  93.3228 0006335 314.9587  44.9896  1.86230711 41634
BEIDOU-3 M7 (C27)       
1 43107U 18003A   23353.14664138 -.00000071  00000+0  00000+0 0  9993
2 43107  55.0571 333.8503 0002992  46.3700 313.6585  1.86232219 40387
BEIDOU-3 M8 (C28)       
1 43108U 18003B   23353.62256212 -.00000074  00000+0  00000+0 0  9990
2 43108  55.0498 333.8204 0004916 267.4354  92.5114  1.86230725 40407
BEIDOU-3 M4 (C22)       
1 43207U 18018A   23352.45356507 -.00000003  00000+0  00000+0 0  9996
2 43207  55.8814  93.4137 0003493 349.8888  10.1053  1.86230978 39762
BEIDOU-3 M3 (C21)       
1 43208U 18018B   23353.05714950 -.00000008  00000+0  00000+0 0  9999
2 43208  55.8812  93.3978 0006503 300.1924  59.7436  1.86231111 39774
BEIDOU-3 M9 (C29)       
1 43245U 18029A   23351.13169421 -.00000061  00000+0  00000+0 0  9995
2 43245  54.9487 331.6444 0002091 280.1584  79.8197  1.86232206 38891
BEIDOU-3 M10 (C30)      
1 43246U 18029B   23353.20937883 -.00000071  00000+0  00000+0 0  9992
2 43246  54.9444 331.6012 0004421 343.3112  16.6762  1.86232595 38915
BEIDOU-2 IGSO-7 (C16)   
1 43539U 18057A   23353.31623743 -.00000052  00000+0  00000+0 0  9996
2 43539  55.1252 170.9278 0064259 228.8215 272.6090  1.00250526 20014
BEIDOU-3 M5 (C23)       
1 43581U 18062A   23352.89306411  .00000063  00000+0  00000+0 0  9992
2 43581  54.1562 213.3130 0002078 339.3569  20.7119  1.86228491 36666
BEIDOU-3 M6 (C24)       
1 43582U 18062B   23353.29670678  .00000065  00000+0  00000+0 0  9999
2 43582  54.1558 213.2888 0007133  35.2331 324.8906  1.86229549 36675
BEIDOU-3 M12 (C26)      
1 43602U 18067A   23353.23203504  .00000068  00000+0  00000+0 0  9994
2 43602  54.2446 211.9560 0008189  28.1470 331.9731  1.86231392 36151
BEIDOU-3 M11 (C25)      
1 43603U 18067B   23354.17215369  .00000075  00000+0  00000+0 0  9999
2 43603  54.2423 211.8902 0005009  22.5469 158.1305  1.86231598 36198
BEIDOU-3 M13 (C32)      
1 43622U 18072A   23353.86215420 -.00000020  00000+0  00000+0 0  9990
2 43622  55.8524  92.9033 0005911 281.6730  78.2595  1.86231014 35704
BEIDOU-3 M14 (C33)      
1 43623U 18072B   23353.19066010 -.00000011  00000+0  00000+0 0  9996
2 43623  55.8538  92.9186 0003091 308.3470  51.6259  1.86230958 35689
BEIDOU-3 M16 (C35)      
1 43647U 18078A   23353.35425687 -.00000072  00000+0  00000+0 0  9992
2 43647  54.8432 331.6815 0007248 359.9461   0.0557  1.86232128 35207
BEIDOU-3 M15 (C34)      
1 43648U 18078B   23352.40944944 -.00000067  00000+0  00000+0 0  9994
2 43648  54.8397 331.7175 0004138 359.1713   0.8303  1.86231973 35209
BEIDOU-3 G1 (C59)       
1 43683U 18085A   23353.97478942 -.00000268  00000+0  00000+0 0  9997
2 43683   1.7596 117.8365 0001501  19.4970  81.9558  1.00273357 18926
BEIDOU-3 M17 (C36)      
1 43706U 18093A   23353.63139568  .00000068  00000+0  00000+0 0  9990
2 43706  54.2389 213.2130 0006685 294.9360  65.0709  1.86228080 34563
BEIDOU-3 M18 (C37)      
1 43707U 18093B   23354.03511756  .00000071  00000+0  00000+0 0  9993
2 43707  54.2395 213.1909 0006427 333.6807  26.3632  1.86229627 34580
BEIDOU-3 IGSO-1 (C38)   
1 44204U 19023A   23353.76493022 -.00000230  00000+0  00000+0 0  9992
2 44204  57.3740  47.1203 0024073 203.1210 229.2695  1.00250169 17236
BEIDOU-2 G8 (C01)       
1 44231U 19027A   23353.76071340 -.00000240  00000+0  00000+0 0  9992
2 44231   1.5044  72.1326 0004540 175.7923 258.4961  1.00266528 16943
BEIDOU-3 IGSO-2 (C39)   
1 44337U 19035A   23353.89838343 -.00000056  00000+0  00000+0 0  9991
2 44337  55.1627 166.8518 0031038 199.5101 161.9076  1.00296802 16572
BEIDOU-3 M24 (C46)      
1 44542U 19061A   23353.03206222  .00000064  00000+0  00000+0 0  9997
2 44542  54.4664 213.4841 0008824   8.9263 351.1667  1.86231461 28824
BEIDOU-3 M23 (C45)      
1 44543U 19061B   23353.68104257  .00000068  00000+0  00000+0 0  9998
2 44543  54.4645 213.4311 0005560   7.1907 340.0294  1.86231599 28832
BEIDOU-3 IGSO-3 (C40)   
1 44709U 19073A   23353.24100061 -.00000205  00000+0  00000+0 0  9990
2 44709  56.3592 290.6386 0033537 189.4558 170.4698  1.00249710 15309
BEIDOU-3 M22 (C44)      
1 44793U 19078A   23352.34049833 -.00000067  00000+0  00000+0 0  9993
2 44793  54.6922 331.6707 0006065   4.7971 355.2109  1.86231840 27679
BEIDOU-3 M21 (C43)      
1 44794U 19078B   23354.08163567 -.00000078  00000+0  00000+0 0  9990
2 44794  54.6648 331.5904 0004295 351.6328   8.3610  1.86232439 27708
BEIDOU-3 M19 (C41)      
1 44864U 19090A   23352.99199025 -.00000008  00000+0  00000+0 0  9991
2 44864  55.7861  93.1135 0017259 272.7797 270.1393  1.86231304 27267
BEIDOU-3 M20 (C42)      
1 44865U 19090B   23353.66937016 -.00000017  00000+0  00000+0 0  9997
2 44865  55.7883  93.1237 0014716 285.7608  81.0789  1.86231289 27254
BEIDOU-3 G2 (C60)       
1 45344U 20017A   23354.46421279 -.00000133  00000+0  00000+0 0  9998
2 45344   2.1261  21.7378 0003367 238.8229  75.3633  1.00271628 14149
BEIDOU-3 G3 (C61)       
1 45807U 20040A   23353.79718515 -.00000345  00000+0  00000+0 0  9990
2 45807   0.5810   8.6135 0009371 303.5858 173.4946  1.00272078 12953
BEIDOU-3 G4             
1 56564U 23066A   23353.76384623 -.00000102  00000+0  00000+0 0  9990
2 56564   2.5751 288.4090 0003934 236.1867 358.5310  1.00272069  2274
